OBJECT_NAME,OBJECT_ID,OBJECT_TYPE,EPOCH,MEAN_MOTION,ECCENTRICITY,INCLINATION,RA_OF_ASC_NODE,ARG_OF_PERICENTER,MEAN_ANOMALY,EPHEMERIS_TYPE,CLASSIFICATION_TYPE,NORAD_CAT_ID,ELEMENT_SET_NO,REV_AT_EPOCH,BSTAR,MEAN_MOTION_DOT,MEAN_MOTION_DDOT,WEATHER,BRIGHTEST,EARTH_RESOURCES,NAVIGATION,SCIENTIFIC,MISCELLANEOUS,COMMUNICATION,active geosynchronous,constellations,active_geosynchronous
STARLINK-32713,2025-003A,Sattelite,2026-02-22T22:20:28.296384,15.27609627,0.00016533,43.0049,12.3914,254.007,106.0599,0,U,62487,999,6439,0.0011692334,0.00032082,0.0,False,False,False,False,False,False,False,False,starlink,
STARLINK-32732,2025-003B,Sattelite,2026-02-22T21:32:21.967008,15.2761116,7.823e-05,42.9982,12.1338,294.7784,65.2986,0,U,62488,999,6429,0.0013611651,0.0003742,0.0,False,False,False,False,False,False,False,False,starlink,
STARLINK-32328,2025-003C,Sattelite,2026-02-22T22:42:40.231008,15.27615152,0.00013154,43.0026,12.4988,250.0835,109.9875,0,U,62489,999,6441,0.0013833158,0.00038041,0.0,False,False,False,False,False,False,False,False,starlink,
STARLINK-32332,2025-003D,Sattelite,2026-02-22T20:51:52.019712,15.27612621,8.88e-05,43.0017,12.7893,319.522,40.5565,0,U,62490,999,6438,0.0012321795,0.00033834,0.0,False,False,False,False,False,False,False,False,starlink,
STARLINK-32717,2025-003E,Sattelite,2026-02-22T14:07:29.832672,15.27587457,5.55e-05,43.0041,14.1146,263.1457,96.9332,0,U,62491,999,6436,0.0010924,0.00029928,0.0,False,False,False,False,False,False,False,False,starlink,
STARLINK-32757,2025-003F,Sattelite,2026-02-22T22:35:16.191168,15.27615897,0.00011932,43.0047,12.4621,255.0755,104.9965,0,U,62492,999,6429,0.0016588174,0.00045718,0.0,False,False,False,False,False,False,False,False,starlink,
STARLINK-32731,2025-003G,Sattelite,2026-02-22T21:19:37.327008,15.2761292,0.00010263,42.9969,12.9314,3.1831,356.9027,0,U,62493,999,6440,0.0010808631,0.0002963,0.0,False,False,False,False,False,False,False,False,starlink,
STARLINK-32694,2025-003H,Sattelite,2026-02-22T21:43:27.880320,15.27594174,3.168e-05,42.9968,12.191,298.3295,61.7525,0,U,62494,999,6441,0.00071489635,0.00019471,0.0,False,False,False,False,False,False,False,False,starlink,
STARLINK-32708,2025-003J,Sattelite,2026-02-22T20:55:32.438208,15.27649424,0.00015319,43.0037,12.803,261.9659,98.1019,0,U,62495,999,6428,0.001681838,0.00046409,0.0,False,False,False,False,False,False,False,False,starlink,
STARLINK-32718,2025-003K,Sattelite,2026-02-22T13:47:08.418336,15.2759969,0.0001978,42.9941,14.014,50.3878,309.7147,0,U,62496,999,6424,0.00067188,0.00018284,0.0,False,False,False,False,False,False,False,False,starlink,
STARLINK-32729,2025-003L,Sattelite,2026-02-22T13:58:13.992096,15.27572279,9.22e-05,43.0015,14.061,257.6424,102.4324,0,U,62497,999,6436,0.00095934,0.00026224,0.0,False,False,False,False,False,False,False,False,starlink,
STARLINK-32739,2025-003M,Sattelite,2026-02-22T22:11:13.595424,15.27595536,0.00013062,43.0022,12.336,272.0171,88.0532,0,U,62498,999,6436,0.00096463006,0.0002639,0.0,False,False,False,False,False,False,False,False,starlink,
STARLINK-32714,2025-003N,Sattelite,2026-02-22T05:36:12.376512,15.27614213,0.00020024,43.0038,16.6118,256.052,104.0109,0,U,62499,999,6430,0.00094226882,0.00025785,0.0,False,False,False,False,False,False,False,False,starlink,
STARLINK-32685,2025-003P,Sattelite,2026-02-22T22:40:49.855872,15.27596974,0.0001657,43.0045,12.4927,251.7557,108.3115,0,U,62500,999,6436,0.00091331854,0.00024969,0.0,False,False,False,False,False,False,False,False,starlink,
STARLINK-32691,2025-003Q,Sattelite,2026-02-22T22:09:22.079808,15.27590539,9.112e-05,42.9968,12.3229,248.0831,111.9924,0,U,62501,999,6440,0.00089624233,0.0002449,0.0,False,False,False,False,False,False,False,False,starlink,
STARLINK-32788,2025-003R,Sattelite,2026-02-22T22:03:49.473504,15.2761073,9.288e-05,43.0017,12.2977,261.2213,98.8533,0,U,62502,999,6429,0.0014450033,0.00039753,0.0,False,False,False,False,False,False,False,False,starlink,
STARLINK-32768,2025-003S,Sattelite,2026-02-22T13:48:58.672512,15.27597178,9.44e-05,43.001,14.0124,282.0622,78.0124,0,U,62503,999,6424,0.00061748,0.00016777,0.0,False,False,False,False,False,False,False,False,starlink,
STARLINK-32792,2025-003T,Sattelite,2026-02-22T21:26:48.585696,15.27609684,2.984e-05,42.9957,12.0996,349.3821,10.7024,0,U,62504,999,6429,0.00093218604,0.00025502,0.0,False,False,False,False,False,False,False,False,starlink,
STARLINK-32725,2025-003U,Sattelite,2026-02-22T21:28:39.127584,15.27614206,5.145e-05,42.9965,12.0961,312.2101,47.8707,0,U,62505,999,6429,0.00090355402,0.00024711,0.0,False,False,False,False,False,False,False,False,starlink,
STARLINK-32681,2025-003V,Sattelite,2026-02-22T20:43:56.849088,15.27567932,6.442e-05,42.9974,354.1463,287.0094,73.0687,0,U,62506,999,6461,0.00069142164,0.00018806,0.0,False,False,False,False,False,False,False,False,starlink,
STARLINK-32679,2025-003W,Sattelite,2026-02-22T21:23:18.679488,15.27604335,6.28e-05,42.9979,12.906,282.83,77.2481,0,U,62507,999,6440,0.0011307543,0.00031008,0.0,False,False,False,False,False,False,False,False,starlink,
STARLINK-32749,2025-003X,Sattelite,2026-02-22T21:54:33.834240,15.2759,0.00011854,43.0007,12.2443,263.2674,96.8042,0,U,62508,999,6429,0.00060504908,0.0001643,0.0,False,False,False,False,False,False,False,False,starlink,
STARLINK-32744,2025-003Y,Sattelite,2026-02-22T22:46:22.287648,15.27598761,0.00015866,43.003,12.5219,250.9481,109.1199,0,U,62509,999,6429,0.00080008199,0.00021832,0.0,False,False,False,False,False,False,False,False,starlink,
STARLINK-32701,2025-003Z,Sattelite,2026-02-22T22:14:55.048992,15.27591505,0.00011095,43.003,12.3546,265.1088,94.9637,0,U,62510,999,6429,0.0005437887,0.00014737,0.0,False,False,False,False,False,False,False,False,starlink,
