STARLINK-32713          
1 62487U 25003A   26053.93088306  .00032082  00000+0  11692-2 0  9995
2 62487  43.0049  12.3914 0001653 254.0070 106.0599 15.27609627 64399
STARLINK-32732          
1 62488U 25003B   26053.89747647  .00037420  00000+0  13612-2 0  9996
2 62488  42.9982  12.1338 0000782 294.7784  65.2986 15.27611160 64297
STARLINK-32328          
1 62489U 25003C   26053.94629897  .00038041  00000+0  13833-2 0  9994
2 62489  43.0026  12.4988 0001315 250.0835 109.9875 15.27615152 64410
STARLINK-32332          
1 62490U 25003D   26053.86935208  .00033834  00000+0  12322-2 0  9990
2 62490  43.0017  12.7893 0000888 319.5220  40.5565 15.27612621 64383
STARLINK-32717          
1 62491U 25003E   26053.58853973  .00029928  00000+0  10924-2 0  9993
2 62491  43.0041  14.1146 0000555 263.1457  96.9332 15.27587457 64368
STARLINK-32757          
1 62492U 25003F   26053.94115962  .00045718  00000+0  16588-2 0  9990
2 62492  43.0047  12.4621 0001193 255.0755 104.9965 15.27615897 64298
STARLINK-32731          
1 62493U 25003G   26053.88862647  .00029630  00000+0  10809-2 0  9998
2 62493  42.9969  12.9314 0001026   3.1831 356.9027 15.27612920 64401
STARLINK-32694          
1 62494U 25003H   26053.90518380  .00019471  00000+0  71490-3 0  9990
2 62494  42.9968  12.1910 0000316 298.3295  61.7525 15.27594174 64413
STARLINK-32708          
1 62495U 25003J   26053.87190322  .00046409  00000+0  16818-2 0  9992
2 62495  43.0037  12.8030 0001531 261.9659  98.1019 15.27649424 64289
STARLINK-32718          
1 62496U 25003K   26053.57440299  .00018284  00000+0  67188-3 0  9998
2 62496  42.9941  14.0140 0001978  50.3878 309.7147 15.27599690 64244
STARLINK-32729          
1 62497U 25003L   26053.58210639  .00026224  00000+0  95934-3 0  9996
2 62497  43.0015  14.0610 0000922 257.6424 102.4324 15.27572279 64360
STARLINK-32739          
1 62498U 25003M   26053.92446291  .00026390  00000+0  96463-3 0  9992
2 62498  43.0022  12.3360 0001306 272.0171  88.0532 15.27595536 64360
STARLINK-32714          
1 62499U 25003N   26053.23347658  .00025785  00000+0  94227-3 0  9997
2 62499  43.0038  16.6118 0002002 256.0520 104.0109 15.27614213 64307
STARLINK-32685          
1 62500U 25003P   26053.94502148  .00024969  00000+0  91332-3 0  9992
2 62500  43.0045  12.4927 0001657 251.7557 108.3115 15.27596974 64360
STARLINK-32691          
1 62501U 25003Q   26053.92317222  .00024490  00000+0  89624-3 0  9998
2 62501  42.9968  12.3229 0000911 248.0831 111.9924 15.27590539 64407
STARLINK-32788          
1 62502U 25003R   26053.91932261  .00039753  00000+0  14450-2 0  9996
2 62502  43.0017  12.2977 0000928 261.2213  98.8533 15.27610730 64295
STARLINK-32768          
1 62503U 25003S   26053.57567908  .00016777  00000+0  61748-3 0  9995
2 62503  43.0010  14.0124 0000944 282.0622  78.0124 15.27597178 64247
STARLINK-32792          
1 62504U 25003T   26053.89361789  .00025502  00000+0  93219-3 0  9994
2 62504  42.9957  12.0996 0000298 349.3821  10.7024 15.27609684 64294
STARLINK-32725          
1 62505U 25003U   26053.89489731  .00024711  00000+0  90355-3 0  9992
2 62505  42.9965  12.0961 0000514 312.2101  47.8707 15.27614206 64292
STARLINK-32681          
1 62506U 25003V   26053.86385242  .00018806  00000+0  69142-3 0  9990
2 62506  42.9974 354.1463 0000644 287.0094  73.0687 15.27567932 64611
STARLINK-32679          
1 62507U 25003W   26053.89118842  .00031008  00000+0  11308-2 0  9993
2 62507  42.9979  12.9060 0000628 282.8300  77.2481 15.27604335 64408
STARLINK-32749          
1 62508U 25003X   26053.91289160  .00016430  00000+0  60505-3 0  9995
2 62508  43.0007  12.2443 0001185 263.2674  96.8042 15.27590000 64297
STARLINK-32744          
1 62509U 25003Y   26053.94886907  .00021832  00000+0  80008-3 0  9993
2 62509  43.0030  12.5219 0001586 250.9481 109.1199 15.27598761 64295
STARLINK-32701          
1 62510U 25003Z   26053.92702603  .00014737  00000+0  54379-3 0  9991
2 62510  43.0030  12.3546 0001109 265.1088  94.9637 15.27591505 64297
